NAVSTAR 77 (USA 289)    
1 43873U 18109A   24252.09616465  .00000008  00000+0  00000+0 0  9992
2 43873  55.3273 117.7512 0030398 192.2787 339.9955  2.00559637 42090
